{
  "type": "FeatureCollection",
  "features": [
    {
      "type": "Feature",
      "properties": {
        "norad_id": 30315,
        "name": "FENGYUN 1C DEB",
        "group": "fengyun-1c-debris",
        "lat": 7.948004957334295,
        "lon": -169.72195309932388,
        "alt_km": 851.8686080614898,
        "timestamp": "2025-12-25T22:42:17.286712+00:00",
        "meta_object_name": "FENGYUN 1C DEB",
        "meta_object_id": "1999-025AAC",
        "meta_epoch": "2025-12-25T13:59:53.206080",
        "meta_mean_motion": 14.19082387,
        "meta_eccentricity": 0.0034594,
        "meta_inclination": 98.6016,
        "meta_ra_of_asc_node": 8.7151,
        "meta_arg_of_pericenter": 322.9641,
        "meta_mean_anomaly": 156.8004,
        "meta_ephemeris_type": 0,
        "meta_classification_type": "U",
        "meta_norad_cat_id": 30315,
        "meta_element_set_no": 999,
        "meta_rev_at_epoch": 97889,
        "meta_bstar": 0.00033288,
        "meta_mean_motion_dot": 6.57e-06,
        "meta_mean_motion_ddot": 0,
        "tle_line1": "1 30315U 99025AAC 25359.58325470  .00000657  00000+0  33288-3 0  9999",
        "tle_line2": "2 30315  98.6016   8.7151 0034594 322.9641 156.8004 14.19082387978896"
      },
      "geometry": {
        "type": "Point",
        "coordinates": [
          -169.72195309932388,
          7.948004957334295
        ]
      }
    },
    {
      "type": "Feature",
      "properties": {
        "norad_id": 30316,
        "name": "FENGYUN 1C DEB",
        "group": "fengyun-1c-debris",
        "lat": -6.820655572810402,
        "lon": -78.20235537601377,
        "alt_km": 733.6147941445342,
        "timestamp": "2025-12-25T22:42:17.286722+00:00",
        "meta_object_name": "FENGYUN 1C DEB",
        "meta_object_id": "1999-025AAD",
        "meta_epoch": "2025-12-25T05:21:34.720992",
        "meta_mean_motion": 14.56278684,
        "meta_eccentricity": 0.0035142,
        "meta_inclination": 98.6477,
        "meta_ra_of_asc_node": 102.0917,
        "meta_arg_of_pericenter": 0.7198,
        "meta_mean_anomaly": 359.4043,
        "meta_ephemeris_type": 0,
        "meta_classification_type": "U",
        "meta_norad_cat_id": 30316,
        "meta_element_set_no": 999,
        "meta_rev_at_epoch": 98518,
        "meta_bstar": 0.0021656,
        "meta_mean_motion_dot": 9.627e-05,
        "meta_mean_motion_ddot": 0,
        "tle_line1": "1 30316U 99025AAD 25359.22331853  .00009627  00000+0  21656-2 0  9994",
        "tle_line2": "2 30316  98.6477 102.0917 0035142   0.7198 359.4043 14.56278684985186"
      },
      "geometry": {
        "type": "Point",
        "coordinates": [
          -78.20235537601377,
          -6.820655572810402
        ]
      }
    },
    {
      "type": "Feature",
      "properties": {
        "norad_id": 30317,
        "name": "FENGYUN 1C DEB",
        "group": "fengyun-1c-debris",
        "lat": -50.37845312049884,
        "lon": 10.810327655719416,
        "alt_km": 870.8247030788734,
        "timestamp": "2025-12-25T22:42:17.286732+00:00",
        "meta_object_name": "FENGYUN 1C DEB",
        "meta_object_id": "1999-025AAE",
        "meta_epoch": "2025-12-24T17:55:58.467936",
        "meta_mean_motion": 14.0695344,
        "meta_eccentricity": 0.00241918,
        "meta_inclination": 98.7866,
        "meta_ra_of_asc_node": 358.8786,
        "meta_arg_of_pericenter": 241.5937,
        "meta_mean_anomaly": 118.2794,
        "meta_ephemeris_type": 0,
        "meta_classification_type": "U",
        "meta_norad_cat_id": 30317,
        "meta_element_set_no": 999,
        "meta_rev_at_epoch": 97182,
        "meta_bstar": 6.7649773e-05,
        "meta_mean_motion_dot": 7e-07,
        "meta_mean_motion_ddot": 0,
        "tle_line1": "1 30317U 99025AAE 25358.74720449  .00000070  00000+0  67650-4 0  9993",
        "tle_line2": "2 30317  98.7866 358.8786 0024191 241.5937 118.2794 14.06953440971828"
      },
      "geometry": {
        "type": "Point",
        "coordinates": [
          10.810327655719416,
          -50.37845312049884
        ]
      }
    },
    {
      "type": "Feature",
      "properties": {
        "norad_id": 30320,
        "name": "FENGYUN 1C DEB",
        "group": "fengyun-1c-debris",
        "lat": -9.505167316698055,
        "lon": 60.818938686735244,
        "alt_km": 904.7917783111598,
        "timestamp": "2025-12-25T22:42:17.286742+00:00",
        "meta_object_name": "FENGYUN 1C DEB",
        "meta_object_id": "1999-025AAH",
        "meta_epoch": "2025-12-25T14:55:24.028032",
        "meta_mean_motion": 13.98562576,
        "meta_eccentricity": 0.0084817,
        "meta_inclination": 99.1861,
        "meta_ra_of_asc_node": 58.9417,
        "meta_arg_of_pericenter": 259.0388,
        "meta_mean_anomaly": 258.9358,
        "meta_ephemeris_type": 0,
        "meta_classification_type": "U",
        "meta_norad_cat_id": 30320,
        "meta_element_set_no": 999,
        "meta_rev_at_epoch": 96587,
        "meta_bstar": 0.00032162,
        "meta_mean_motion_dot": 4.3e-06,
        "meta_mean_motion_ddot": 0,
        "tle_line1": "1 30320U 99025AAH 25359.62180588  .00000430  00000+0  32162-3 0  9998",
        "tle_line2": "2 30320  99.1861  58.9417 0084817 259.0388 258.9358 13.98562576965878"
      },
      "geometry": {
        "type": "Point",
        "coordinates": [
          60.818938686735244,
          -9.505167316698055
        ]
      }
    },
    {
      "type": "Feature",
      "properties": {
        "norad_id": 30321,
        "name": "FENGYUN 1C DEB",
        "group": "fengyun-1c-debris",
        "lat": -0.3553839022340509,
        "lon": 178.56901938735334,
        "alt_km": 798.2330154601796,
        "timestamp": "2025-12-25T22:42:17.286752+00:00",
        "meta_object_name": "FENGYUN 1C DEB",
        "meta_object_id": "1999-025AAJ",
        "meta_epoch": "2025-12-24T22:26:28.346784",
        "meta_mean_motion": 14.16654925,
        "meta_eccentricity": 0.006039,
        "meta_inclination": 98.6565,
        "meta_ra_of_asc_node": 357.6397,
        "meta_arg_of_pericenter": 201.4039,
        "meta_mean_anomaly": 225.9813,
        "meta_ephemeris_type": 0,
        "meta_classification_type": "U",
        "meta_norad_cat_id": 30321,
        "meta_element_set_no": 999,
        "meta_rev_at_epoch": 97716,
        "meta_bstar": 0.00027038,
        "meta_mean_motion_dot": 5.07e-06,
        "meta_mean_motion_ddot": 0,
        "tle_line1": "1 30321U 99025AAJ 25358.93505031  .00000507  00000+0  27038-3 0  9997",
        "tle_line2": "2 30321  98.6565 357.6397 0060390 201.4039 225.9813 14.16654925977160"
      },
      "geometry": {
        "type": "Point",
        "coordinates": [
          178.56901938735334,
          -0.3553839022340509
        ]
      }
    },
    {
      "type": "Feature",
      "properties": {
        "norad_id": 30322,
        "name": "FENGYUN 1C DEB",
        "group": "fengyun-1c-debris",
        "lat": 50.70256389951469,
        "lon": -153.70974184947133,
        "alt_km": 955.7946581807764,
        "timestamp": "2025-12-25T22:42:17.286762+00:00",
        "meta_object_name": "FENGYUN 1C DEB",
        "meta_object_id": "1999-025AAK",
        "meta_epoch": "2025-12-25T13:54:58.066272",
        "meta_mean_motion": 14.06150308,
        "meta_eccentricity": 0.0126361,
        "meta_inclination": 98.3986,
        "meta_ra_of_asc_node": 216.3501,
        "meta_arg_of_pericenter": 216.411,
        "meta_mean_anomaly": 142.8416,
        "meta_ephemeris_type": 0,
        "meta_classification_type": "U",
        "meta_norad_cat_id": 30322,
        "meta_element_set_no": 999,
        "meta_rev_at_epoch": 96380,
        "meta_bstar": 0.0010427,
        "meta_mean_motion_dot": 1.802e-05,
        "meta_mean_motion_ddot": 0,
        "tle_line1": "1 30322U 99025AAK 25359.57983873  .00001802  00000+0  10427-2 0  9995",
        "tle_line2": "2 30322  98.3986 216.3501 0126361 216.4110 142.8416 14.06150308963807"
      },
      "geometry": {
        "type": "Point",
        "coordinates": [
          -153.70974184947133,
          50.70256389951469
        ]
      }
    },
    {
      "type": "Feature",
      "properties": {
        "norad_id": 30325,
        "name": "FENGYUN 1C DEB",
        "group": "fengyun-1c-debris",
        "lat": -43.19603399046692,
        "lon": -169.40856448240365,
        "alt_km": 857.9052590667334,
        "timestamp": "2025-12-25T22:42:17.286772+00:00",
        "meta_object_name": "FENGYUN 1C DEB",
        "meta_object_id": "1999-025AAL",
        "meta_epoch": "2025-12-23T18:31:16.264128",
        "meta_mean_motion": 14.09107979,
        "meta_eccentricity": 0.00155616,
        "meta_inclination": 98.7322,
        "meta_ra_of_asc_node": 16.7817,
        "meta_arg_of_pericenter": 220.3959,
        "meta_mean_anomaly": 139.6057,
        "meta_ephemeris_type": 0,
        "meta_classification_type": "U",
        "meta_norad_cat_id": 30325,
        "meta_element_set_no": 999,
        "meta_rev_at_epoch": 97171,
        "meta_bstar": 0.00014655586,
        "meta_mean_motion_dot": 2.12e-06,
        "meta_mean_motion_ddot": 0,
        "tle_line1": "1 30325U 99025AAL 25357.77171602  .00000212  00000+0  14656-3 0  9990",
        "tle_line2": "2 30325  98.7322  16.7817 0015561 220.3959 139.6057 14.09107979971717"
      },
      "geometry": {
        "type": "Point",
        "coordinates": [
          -169.40856448240365,
          -43.19603399046692
        ]
      }
    }
  ]
}